ORBVIEW 2 (SEASTAR)     
1 24883U 97037A   26168.43817018  .00000154  00000+0  69582-4 0  9999
2 24883  98.8687 335.4641 0003198 115.6178 244.5338 14.35553350522786
SL-16 R/B               
1 25400U 98043G   26168.50325257  .00000030  00000+0  31403-4 0  9994
2 25400  98.8364 122.6652 0010953  85.5266 274.7164 14.26068623453219
SL-16 R/B               
1 25407U 98045B   26168.51843399 -.00000239  00000+0 -96397-4 0  9992
2 25407  71.0117 331.6329 0009368 241.2071 118.8112 14.16203069441235
ISS (ZARYA)             
1 25544U 98067A   26168.51200967  .00010215  00000+0  19142-3 0  9991
2 25544  51.6331 298.4851 0004696 196.4176 163.6661 15.49281356571801
OKEAN-O                 
1 25860U 99039A   26168.14478607  .00000491  00000+0  70952-4 0  9991
2 25860  97.9317 226.9432 0001603  72.3552 287.7835 14.80467206449107
SL-16 R/B               
1 25861U 99039B   26168.09907524  .00000375  00000+0  54261-4 0  9997
2 25861  97.9838 226.9623 0013486 297.2059  62.7779 14.81845031451580
DELTA 2 R/B             
1 25876U 99041E   26168.45855435  .00000455  00000+0  11122-3 0  9996
2 25876  51.7654 262.7127 0500843 282.8187  71.7250 14.12016533377129
HELIOS 1B               
1 25977U 99064A   26168.31312412  .00001070  00000+0  12299-3 0  9991
2 25977  98.1615  73.4566 0002498  91.1071 269.0431 14.88006711700070
SL-16 R/B               
1 26070U 00006B   26168.48909672 -.00000020  00000+0  14244-4 0  9990
2 26070  71.0020 247.9904 0015538  22.5832 337.5971 14.15834043362689
ENVISAT                 
1 27386U 02009A   26168.46733091  .00000061  00000+0  33767-4 0  9999
2 27386  98.3834 119.7795 0001350  88.6788  22.0937 14.39064834273520
CZ-4B R/B               
1 27432U 02024C   26168.17041999  .00000029  00000+0  37450-4 0  9992
2 27432  98.8700 220.9907 0051204 100.2995 324.9914 14.14564431243306
MIDORI II (ADEOS-II)    
1 27597U 02056A   26168.48807322  .00000188  00000+0  91538-4 0  9996
2 27597  98.7878 127.7504 0002212  76.8845 283.2583 14.29349697224553
H-2A R/B                
1 27601U 02056E   26168.50996931  .00000143  00000+0  64903-4 0  9997
2 27601  98.3312 125.1726 0069192 223.5924 247.3658 14.33822122228412
CZ-4B R/B               
1 28059U 03049C   26168.50629018  .00000214  00000+0  60908-4 0  9997
2 28059  98.6896 167.3655 0046953 287.6003  72.0068 14.55100318201114
CZ-2C R/B               
1 28222U 04012C   26168.16015818  .00082298  00000+0  46194-3 0  9991
2 28222  97.7075 243.8198 0009344 283.2955  76.7268 15.78982321219893
SL-16 R/B               
1 28353U 04021B   26168.01985972 -.00000249  00000+0 -10448-3 0  9998
2 28353  71.0008  24.0403 0007276 255.1788 104.8528 14.14608401136883
ALOS (DAICHI)           
1 28931U 06002A   26168.43084947  .00000849  00000+0  14979-3 0  9996
2 28931  98.1323 123.9974 0001450  57.3793 302.7553 14.70050847 88131
H-2A R/B                
1 28932U 06002B   26168.51594132  .00005813  00000+0  28042-3 0  9990
2 28932  98.2567 324.3741 0049596 261.1521  98.4093 15.18063600109573
RESURS-DK 1             
1 29228U 06021A   26168.49808350  .00001714  00000+0  10235-3 0  9998
2 29228  69.9343 338.7479 0006918 291.5563  68.4865 15.13219728102622
CZ-4B R/B               
1 29507U 06046C   26168.12099975  .00003126  00000+0  15635-3 0  9998
2 29507  97.5450 212.7283 0030994 282.9606  76.8167 15.17783435 75122
CZ-2C R/B               
1 31114U 07010B   26168.05992594  .00000067  00000+0  49609-4 0  9998
2 31114  98.4100 276.4170 0059027   6.4996 353.6934 14.20276159993829
