OBJECT_NAME,OBJECT_ID,EPOCH,MEAN_MOTION,ECCENTRICITY,INCLINATION,RA_OF_ASC_NODE,ARG_OF_PERICENTER,MEAN_ANOMALY,EPHEMERIS_TYPE,CLASSIFICATION_TYPE,NORAD_CAT_ID,ELEMENT_SET_NO,REV_AT_EPOCH,BSTAR,MEAN_MOTION_DOT,MEAN_MOTION_DDOT
ORBVIEW 2 (SEASTAR),1997-037A,2026-06-17T10:30:57.902688,14.35553350,.0003198,98.8687,335.4641,115.6178,244.5338,0,U,24883,999,52278,.69582E-4,.154E-5,0
SL-16 R/B,1998-043G,2026-06-17T12:04:41.022048,14.26068623,.0010954,98.8364,122.6652,85.5266,274.7164,0,U,25400,999,45321,.31403E-4,.3E-6,0
SL-16 R/B,1998-045B,2026-06-17T12:26:32.695872,14.16203069,.0009368,71.0117,331.6329,241.2071,118.8112,0,U,25407,999,44123,-.96397E-4,-.239E-5,0
ISS (ZARYA),1998-067A,2026-06-17T12:17:17.634624,15.49281356,.0004697,51.6331,298.4851,196.4176,163.6661,0,U,25544,999,57180,.19142E-3,.10215E-3,0
OKEAN-O,1999-039A,2026-06-17T03:28:29.515584,14.80467206,.0001603,97.9317,226.9432,72.3552,287.7835,0,U,25860,999,44910,.70952E-4,.491E-5,0
SL-16 R/B,1999-039B,2026-06-17T02:22:40.099872,14.81845031,.0013486,97.9838,226.9623,297.2059,62.7779,0,U,25861,999,45158,.54261E-4,.375E-5,0
DELTA 2 R/B,1999-041E,2026-06-17T11:00:19.094976,14.12016533,.0500844,51.7654,262.7127,282.8187,71.7250,0,U,25876,999,37712,.11122E-3,.455E-5,0
HELIOS 1B,1999-064A,2026-06-17T07:30:53.923104,14.88006711,.0002498,98.1615,73.4566,91.1071,269.0431,0,U,25977,999,70007,.12299E-3,.107E-4,0
SL-16 R/B,2000-006B,2026-06-17T11:44:17.955744,14.15834043,.0015539,71.0020,247.9904,22.5832,337.5971,0,U,26070,999,36268,.14244E-4,-.2E-6,0
ENVISAT,2002-009A,2026-06-17T11:12:57.389760,14.39064833,.000135,98.3834,119.7795,88.6788,22.0937,0,U,27386,999,27352,.33767E-4,.61E-6,0
CZ-4B R/B,2002-024C,2026-06-17T04:05:24.287136,14.14564431,.0051204,98.8700,220.9907,100.2995,324.9914,0,U,27432,999,24330,.3745E-4,.29E-6,0
MIDORI II (ADEOS-II),2002-056A,2026-06-17T11:42:49.526208,14.29349697,.0002212,98.7878,127.7504,76.8845,283.2583,0,U,27597,999,22455,.91538E-4,.188E-5,0
H-2A R/B,2002-056E,2026-06-17T12:14:21.348384,14.33822122,.0069192,98.3312,125.1726,223.5924,247.3658,0,U,27601,999,22841,.64903E-4,.143E-5,0
CZ-4B R/B,2003-049C,2026-06-17T12:09:03.470688,14.55100318,.0046953,98.6896,167.3655,287.6003,72.0068,0,U,28059,999,20111,.60908E-4,.214E-5,0
CZ-2C R/B,2004-012C,2026-06-17T03:50:37.665888,15.78982321,.0009344,97.7075,243.8198,283.2955,76.7268,0,U,28222,999,21989,.46194E-3,.82298E-3,0
SL-16 R/B,2004-021B,2026-06-17T00:28:35.878944,14.14608401,.0007276,71.0008,24.0403,255.1788,104.8528,0,U,28353,999,13688,-.10448E-3,-.249E-5,0
ALOS (DAICHI),2006-002A,2026-06-17T10:20:25.394208,14.70050847,.000145,98.1323,123.9974,57.3793,302.7553,0,U,28931,999,8813,.14979E-3,.849E-5,0
H-2A R/B,2006-002B,2026-06-17T12:22:57.330048,15.18063600,.0049597,98.2567,324.3741,261.1521,98.4093,0,U,28932,999,10957,.28042E-3,.5813E-4,0
RESURS-DK 1,2006-021A,2026-06-17T11:57:14.414400,15.13219728,.0006918,69.9343,338.7479,291.5563,68.4865,0,U,29228,999,10262,.10235E-3,.1714E-4,0
CZ-4B R/B,2006-046C,2026-06-17T02:54:14.378400,15.17783435,.0030994,97.5450,212.7283,282.9606,76.8167,0,U,29507,999,7512,.15635E-3,.3126E-4,0
CZ-2C R/B,2007-010B,2026-06-17T01:26:17.601216,14.20276159,.0059028,98.4100,276.4170,6.4996,353.6934,0,U,31114,999,99382,.49609E-4,.67E-6,0
